{"type":"FeatureCollection","columns":{"count":"Long<0, 4294967295>","label":"Byte<0, 1>","system:index":"String"},"features":[{"type":"Feature","geometry":{"geodesic":false,"type":"Polygon","coordinates":[[[75.78780624919803,26.839504732809417],[75.78780624919803,26.838965743638948],[75.78295534666378,26.839504732809417],[75.78295534666378,26.838965743638948],[75.7845723141752,26.838965743638948],[75.78565029251614,26.83680978695706],[75.78672827085708,26.83680978695706],[75.78672827085708,26.836270797786586],[75.78888422753897,26.836270797786586],[75.78942321670944,26.839504732809417],[75.78780624919803,26.839504732809417]]]},"id":"+140613+49795","properties":{"count":42,"label":1}},{"type":"Feature","geometry":{"geodesic":false,"type":"Polygon","coordinates":[[[75.79104018422086,26.787222783273663],[75.7921181625618,26.787222783273663],[75.7921181625618,26.787761772444135],[75.79104018422086,26.787761772444135],[75.79104018422086,26.787222783273663]]]},"id":"+140618+49699","properties":{"count":2,"label":1}},{"type":"Feature","geometry":{"geodesic":false,"type":"Polygon","coordinates":[[[75.79265715173227,26.787222783273663],[75.79319614090275,26.787761772444135],[75.79265715173227,26.787761772444135],[75.79265715173227,26.787222783273663]]]},"id":"+140620+49699","properties":{"count":1,"label":1}},{"type":"Feature","geometry":{"geodesic":false,"type":"Polygon","coordinates":[[[75.79535209758463,26.791534696637434],[75.7958910867551,26.788839750785076],[75.79750805426652,26.788839750785076],[75.79912502177794,26.787222783273663],[75.80235895680076,26.787761772444135],[75.80235895680076,26.788300761614604],[75.7996640109484,26.788300761614604],[75.79858603260746,26.78991772912602],[75.79643007592557,26.78991772912602],[75.79643007592557,26.790995707466962],[75.79535209758463,26.791534696637434]]]},"id":"+140625+49706","properties":{"count":33,"label":1}},{"type":"Feature","geometry":{"geodesic":false,"type":"Polygon","coordinates":[[[75.80451491348265,26.79315166414885],[75.80451491348265,26.792073685807907],[75.80397592431218,26.79315166414885],[75.80235895680076,26.792073685807907],[75.80235895680076,26.78991772912602],[75.8034369351417,26.790995707466962],[75.807209859335,26.790995707466962],[75.807209859335,26.79261267497838],[75.8055928918236,26.792073685807907],[75.80451491348265,26.79315166414885]]]},"id":"+140642+49709","properties":{"count":28,"label":1}},{"type":"Feature","geometry":{"geodesic":false,"type":"Polygon","coordinates":[[[75.8169116644035,26.828724949399984],[75.8169116644035,26.82818596022951],[75.81475570772162,26.82818596022951],[75.81475570772162,26.82764697105904],[75.81637267523303,26.82764697105904],[75.81745065357397,26.826568992718098],[75.82014559942633,26.827107981888567],[75.82014559942633,26.82764697105904],[75.8169116644035,26.828724949399984]]]},"id":"+140665+49775","properties":{"count":19,"label":1}},{"type":"Feature","geometry":{"geodesic":false,"type":"Polygon","coordinates":[[[75.83308133951765,26.822257079354323],[75.83254235034718,26.819562133501964],[75.83469830702907,26.819023144331492],[75.83415931785859,26.819562133501964],[75.83469830702907,26.821179101013378],[75.83308133951765,26.822257079354323]]]},"id":"+140695+49763","properties":{"count":18,"label":1}},{"type":"Feature","geometry":{"geodesic":false,"type":"Polygon","coordinates":[[[75.83631527454048,26.79908054502404],[75.83577628537002,26.798002566683095],[75.83631527454048,26.79692458834215],[75.83739325288143,26.79692458834215],[75.83739325288143,26.79584661000121],[75.83901022039284,26.796385599171682],[75.83847123122237,26.797463577512623],[75.83739325288143,26.797463577512623],[75.83739325288143,26.79908054502404],[75.83631527454048,26.79908054502404]]]},"id":"+140702+49720","properties":{"count":15,"label":1}},{"type":"Feature","geometry":{"geodesic":false,"type":"Polygon","coordinates":[[[75.83901022039284,26.796385599171682],[75.83901022039284,26.79584661000121],[75.84008819873378,26.79584661000121],[75.84008819873378,26.794229642489793],[75.83901022039284,26.794229642489793],[75.83901022039284,26.793690653319324],[75.84224415541567,26.793690653319324],[75.84224415541567,26.79315166414885],[75.84440011209756,26.793690653319324],[75.84386112292708,26.795307620830737],[75.84224415541567,26.794768631660265],[75.84278314458615,26.79584661000121],[75.84062718790426,26.795307620830737],[75.84062718790426,26.796385599171682],[75.83901022039284,26.796385599171682]]]},"id":"+140708+49715","properties":{"count":31,"label":1}},{"type":"Feature","geometry":{"geodesic":false,"type":"Polygon","coordinates":[[[75.83901022039284,26.83734877612753],[75.84008819873378,26.835192819445645],[75.84278314458615,26.835192819445645],[75.8417051662452,26.83734877612753],[75.83901022039284,26.83734877612753]]]},"id":"+140710+49791","properties":{"count":21,"label":1}},{"type":"Feature","geometry":{"geodesic":false,"type":"Polygon","coordinates":[[[75.8417051662452,26.801236501705926],[75.8417051662452,26.80015852336498],[75.84278314458615,26.80015852336498],[75.84278314458615,26.799619534194512],[75.84601707960897,26.80015852336498],[75.8454780904385,26.801236501705926],[75.8417051662452,26.801236501705926]]]},"id":"+140717+49724","properties":{"count":16,"label":1}},{"type":"Feature","geometry":{"geodesic":false,"type":"Polygon","coordinates":[[[75.84655606877945,26.79692458834215],[75.84493910126803,26.79584661000121],[75.84493910126803,26.794229642489793],[75.84979000380227,26.794768631660265],[75.84655606877945,26.79692458834215]]]},"id":"+140720+49716","properties":{"count":26,"label":1}},{"type":"Feature","geometry":{"geodesic":false,"type":"Polygon","coordinates":[[[75.84817303629086,26.793690653319324],[75.84817303629086,26.79315166414885],[75.84709505794991,26.79315166414885],[75.84817303629086,26.792073685807907],[75.8476340471204,26.790456718296493],[75.84979000380227,26.790456718296493],[75.84817303629086,26.793690653319324]]]},"id":"+140723+49710","properties":{"count":15,"label":1}},{"type":"Feature","geometry":{"geodesic":false,"type":"Polygon","coordinates":[[[75.85248494965464,26.794229642489793],[75.85248494965464,26.78991772912602],[75.8530239388251,26.78991772912602],[75.8530239388251,26.791534696637434],[75.85464090633653,26.791534696637434],[75.85464090633653,26.792073685807907],[75.85248494965464,26.794229642489793]]]},"id":"+140731+49711","properties":{"count":15,"label":1}},{"type":"Feature","geometry":{"geodesic":false,"type":"Polygon","coordinates":[[[75.85517989550699,26.801236501705926],[75.85464090633653,26.799619534194512],[75.85517989550699,26.799619534194512],[75.85517989550699,26.798002566683095],[75.8567968630184,26.79692458834215],[75.85787484135935,26.798002566683095],[75.85625787384794,26.798541555853568],[75.85625787384794,26.80015852336498],[75.85517989550699,26.801236501705926]]]},"id":"+140736+49724","properties":{"count":19,"label":1}},{"type":"Feature","geometry":{"geodesic":false,"type":"Polygon","coordinates":[[[75.85571888467746,26.81201628511536],[75.85517989550699,26.809860328433473],[75.85356292799558,26.809860328433473],[75.85356292799558,26.80878235009253],[75.85464090633653,26.80878235009253],[75.85464090633653,26.807165382581115],[75.8567968630184,26.809321339263],[75.8567968630184,26.810938306774418],[75.85571888467746,26.81201628511536]]]},"id":"+140737+49744","properties":{"count":23,"label":1}},{"type":"Feature","geometry":{"geodesic":false,"type":"Polygon","coordinates":[[[75.85787484135935,26.859447332116872],[75.85625787384794,26.858369353775927],[75.85841383052983,26.85567440792357],[75.86003079804124,26.8589083429464],[75.85787484135935,26.859447332116872]]]},"id":"+140741+49832","properties":{"count":22,"label":1}},{"type":"Feature","geometry":{"geodesic":false,"type":"Polygon","coordinates":[[[75.86003079804124,26.80500942589923],[75.85949180887077,26.802853469217343],[75.85787484135935,26.80231448004687],[75.85787484135935,26.801236501705926],[75.86110877638218,26.8017754908764],[75.86110877638218,26.80500942589923],[75.86003079804124,26.80500942589923]],[[75.86056978721172,26.803392458387812],[75.86003079804124,26.802853469217343],[75.86056978721172,26.802853469217343],[75.86056978721172,26.803392458387812]]]},"id":"+140746+49731","properties":{"count":25,"label":1}},{"type":"Feature","geometry":{"geodesic":false,"type":"Polygon","coordinates":[[[75.86164776555265,26.859447332116872],[75.86110877638218,26.856752386264514],[75.86272574389359,26.85621339709404],[75.86218675472313,26.856752386264514],[75.86272574389359,26.859447332116872],[75.86164776555265,26.859447332116872]]]},"id":"+140749+49832","properties":{"count":15,"label":1}},{"type":"Feature","geometry":{"geodesic":false,"type":"Polygon","coordinates":[[[75.86218675472313,26.847050581196022],[75.86218675472313,26.845972602855078],[75.86110877638218,26.845433613684605],[75.86110877638218,26.84381664617319],[75.86272574389359,26.84327765700272],[75.86326473306407,26.844355635343664],[75.86272574389359,26.84651159202555],[75.86380372223454,26.84651159202555],[75.86380372223454,26.847050581196022],[75.86218675472313,26.847050581196022]]]},"id":"+140751+49809","properties":{"count":17,"label":1}},{"type":"Feature","geometry":{"geodesic":false,"type":"Polygon","coordinates":[[[75.86380372223454,26.794768631660265],[75.86380372223454,26.794229642489793],[75.86272574389359,26.794229642489793],[75.86380372223454,26.792073685807907],[75.86272574389359,26.792073685807907],[75.86272574389359,26.790995707466962],[75.86434271140502,26.78937873995555],[75.86434271140502,26.787761772444135],[75.86542068974596,26.787761772444135],[75.86542068974596,26.788839750785076],[75.86757664642784,26.78937873995555],[75.86811563559831,26.790995707466962],[75.8702715922802,26.790995707466962],[75.86973260310972,26.791534696637434],[75.8702715922802,26.794229642489793],[75.86919361393926,26.794229642489793],[75.86865462476878,26.791534696637434],[75.86703765725737,26.792073685807907],[75.8664986680869,26.790456718296493],[75.86434271140502,26.78991772912602],[75.86488170057548,26.790995707466962],[75.86595967891643,26.790995707466962],[75.86595967891643,26.791534696637434],[75.86434271140502,26.791534696637434],[75.86434271140502,26.79315166414885],[75.86542068974596,26.792073685807907],[75.86595967891643,26.79315166414885],[75.86542068974596,26.794229642489793],[75.86380372223454,26.794768631660265]]]},"id":"+140752+49712","properties":{"count":70,"label":1}},{"type":"Feature","geometry":{"geodesic":false,"type":"Polygon","coordinates":[[[75.86326473306407,26.798541555853568],[75.86326473306407,26.794768631660265],[75.86380372223454,26.794768631660265],[75.86380372223454,26.79584661000121],[75.86542068974596,26.795307620830737],[75.86595967891643,26.798002566683095],[75.86326473306407,26.798541555853568]]]},"id":"+140752+49719","properties":{"count":24,"label":1}},{"type":"Feature","geometry":{"geodesic":false,"type":"Polygon","coordinates":[[[75.86595967891643,26.809321339263],[75.86595967891643,26.80878235009253],[75.86488170057548,26.80878235009253],[75.86488170057548,26.809321339263],[75.86380372223454,26.80878235009253],[75.86434271140502,26.804470436728757],[75.86326473306407,26.803931447558284],[75.86326473306407,26.802853469217343],[75.86434271140502,26.802853469217343],[75.86434271140502,26.8017754908764],[75.86488170057548,26.8017754908764],[75.86595967891643,26.8055484150697],[75.86811563559831,26.80608740424017],[75.86811563559831,26.80824336092206],[75.86703765725737,26.809321339263],[75.86595967891643,26.809321339263]]]},"id":"+140757+49739","properties":{"count":63,"label":1}},{"type":"Feature","geometry":{"geodesic":false,"type":"Polygon","coordinates":[[[75.8664986680869,26.859447332116872],[75.8664986680869,26.8589083429464],[75.86542068974596,26.8589083429464],[75.86595967891643,26.855135418753097],[75.86488170057548,26.855135418753097],[75.86488170057548,26.854596429582624],[75.86542068974596,26.853518451241683],[75.86380372223454,26.853518451241683],[75.86326473306407,26.854596429582624],[75.86272574389359,26.85297946207121],[75.86542068974596,26.85244047290074],[75.86595967891643,26.854596429582624],[75.86703765725737,26.854596429582624],[75.86703765725737,26.85297946207121],[75.86919361393926,26.85244047290074],[75.86973260310972,26.850823505389325],[75.86703765725737,26.850284516218853],[75.86703765725737,26.84974552704838],[75.8702715922802,26.849206537877908],[75.86973260310972,26.850284516218853],[75.8702715922802,26.851362494559794],[75.87134957062115,26.851362494559794],[75.8724275489621,26.854057440412156],[75.87134957062115,26.854596429582624],[75.87134957062115,26.853518451241683],[75.86919361393926,26.85297946207121],[75.8664986680869,26.85567440792357],[75.8664986680869,26.857830364605455],[75.86811563559831,26.858369353775927],[75.86811563559831,26.85567440792357],[75.86865462476878,26.85621339709404],[75.86973260310972,26.85621339709404],[75.86973260310972,26.85567440792357],[75.87134957062115,26.85567440792357],[75.87081058145067,26.85621339709404],[75.87134957062115,26.857830364605455],[75.86919361393926,26.857291375434983],[75.86865462476878,26.8589083429464],[75.8664986680869,26.859447332116872]]]},"id":"+140758+49832","properties":{"count":95,"label":1}},{"type":"Feature","geometry":{"geodesic":false,"type":"Polygon","coordinates":[[[75.87081058145067,26.86322025631017],[75.87081058145067,26.86214227796923],[75.86919361393926,26.861603288798758],[75.86919361393926,26.860525310457813],[75.8702715922802,26.861064299628286],[75.86973260310972,26.859447332116872],[75.87081058145067,26.859447332116872],[75.87081058145067,26.861064299628286],[75.87296653813256,26.86214227796923],[75.87296653813256,26.862681267139703],[75.87081058145067,26.86322025631017]]]},"id":"+140766+49839","properties":{"count":21,"label":1}},{"type":"Feature","geometry":{"geodesic":false,"type":"Polygon","coordinates":[[[75.87188855979161,26.81525022013819],[75.87188855979161,26.81471123096772],[75.86919361393926,26.81471123096772],[75.86919361393926,26.813633252626776],[75.86811563559831,26.813633252626776],[75.86919361393926,26.81147729594489],[75.87188855979161,26.81255527428583],[75.87134957062115,26.813633252626776],[75.86973260310972,26.813094263456303],[75.86973260310972,26.814172241797248],[75.8724275489621,26.814172241797248],[75.87188855979161,26.81525022013819]]]},"id":"+140767+49750","properties":{"count":23,"label":1}},{"type":"Feature","geometry":{"geodesic":false,"type":"Polygon","coordinates":[[[75.87134957062115,26.84974552704838],[75.87134957062115,26.848128559536963],[75.87296653813256,26.848128559536963],[75.87188855979161,26.845972602855078],[75.87350552730302,26.847050581196022],[75.8740445164735,26.845972602855078],[75.8724275489621,26.845972602855078],[75.8724275489621,26.845433613684605],[75.86973260310972,26.845972602855078],[75.86919361393926,26.845433613684605],[75.86919361393926,26.84651159202555],[75.86757664642784,26.847050581196022],[75.8664986680869,26.845972602855078],[75.86703765725737,26.844355635343664],[75.86865462476878,26.84381664617319],[75.86919361393926,26.844894624514136],[75.87134957062115,26.844355635343664],[75.87134957062115,26.844894624514136],[75.87566148398491,26.845433613684605],[75.87566148398491,26.845972602855078],[75.87458350564397,26.845972602855078],[75.87512249481445,26.847589570366495],[75.87350552730302,26.847589570366495],[75.87350552730302,26.848667548707436],[75.8724275489621,26.848667548707436],[75.8724275489621,26.84974552704838],[75.87134957062115,26.84974552704838]]]},"id":"+140767+49814","properties":{"count":59,"label":1}},{"type":"Feature","geometry":{"geodesic":false,"type":"Polygon","coordinates":[[[75.87296653813256,26.822257079354323],[75.87350552730302,26.821179101013378],[75.87458350564397,26.821179101013378],[75.87458350564397,26.819562133501964],[75.87350552730302,26.819562133501964],[75.87350552730302,26.819023144331492],[75.87458350564397,26.81740617682008],[75.87673946232586,26.816867187649606],[75.87727845149634,26.81794516599055],[75.8778174406668,26.81740617682008],[75.87997339734869,26.81794516599055],[75.88051238651916,26.816867187649606],[75.88105137568964,26.819023144331492],[75.87943440817823,26.819023144331492],[75.87889541900775,26.820101122672437],[75.8778174406668,26.819023144331492],[75.87673946232586,26.819023144331492],[75.8762004731554,26.821179101013378],[75.87727845149634,26.821179101013378],[75.87727845149634,26.82171809018385],[75.87296653813256,26.822257079354323]]]},"id":"+140772+49763","properties":{"count":68,"label":1}},{"type":"Feature","geometry":{"geodesic":false,"type":"Polygon","coordinates":[[[75.87458350564397,26.826030003547626],[75.8740445164735,26.823335057695267],[75.87458350564397,26.822796068524795],[75.87943440817823,26.822257079354323],[75.8778174406668,26.823335057695267],[75.8778174406668,26.82441303603621],[75.8762004731554,26.82441303603621],[75.87566148398491,26.826030003547626],[75.87458350564397,26.826030003547626]]]},"id":"+140773+49770","properties":{"count":32,"label":1}},{"type":"Feature","geometry":{"geodesic":false,"type":"Polygon","coordinates":[[[75.87458350564397,26.861064299628286],[75.8740445164735,26.8589083429464],[75.87458350564397,26.859986321287344],[75.8762004731554,26.859986321287344],[75.8762004731554,26.858369353775927],[75.87835642983728,26.8589083429464],[75.87673946232586,26.860525310457813],[75.87458350564397,26.861064299628286]]]},"id":"+140773+49835","properties":{"count":17,"label":1}},{"type":"Feature","geometry":{"geodesic":false,"type":"Polygon","coordinates":[[[75.87566148398491,26.831419895252342],[75.8740445164735,26.829263938570456],[75.8724275489621,26.829263938570456],[75.8724275489621,26.82818596022951],[75.87350552730302,26.82764697105904],[75.87350552730302,26.827107981888567],[75.8724275489621,26.827107981888567],[75.87296653813256,26.826030003547626],[75.87512249481445,26.826568992718098],[75.87512249481445,26.828724949399984],[75.8762004731554,26.82980292774093],[75.8762004731554,26.831419895252342],[75.87566148398491,26.831419895252342]],[[75.87458350564397,26.828724949399984],[75.8740445164735,26.82764697105904],[75.87458350564397,26.82764697105904],[75.87458350564397,26.828724949399984]]]},"id":"+140774+49780","properties":{"count":33,"label":1}},{"type":"Feature","geometry":{"geodesic":false,"type":"Polygon","coordinates":[[[75.87673946232586,26.792073685807907],[75.87727845149634,26.790456718296493],[75.87673946232586,26.790456718296493],[75.87673946232586,26.788300761614604],[75.87566148398491,26.788300761614604],[75.87566148398491,26.787761772444135],[75.87835642983728,26.788300761614604],[75.87835642983728,26.78991772912602],[75.8778174406668,26.78991772912602],[75.87835642983728,26.792073685807907],[75.87673946232586,26.792073685807907]]]},"id":"+140778+49707","properties":{"count":21,"label":1}},{"type":"Feature","geometry":{"geodesic":false,"type":"Polygon","coordinates":[[[75.88105137568964,26.81147729594489],[75.87997339734869,26.810399317603945],[75.88051238651916,26.80824336092206],[75.87943440817823,26.80824336092206],[75.87943440817823,26.809321339263],[75.8778174406668,26.810399317603945],[75.87458350564397,26.810399317603945],[75.8740445164735,26.809860328433473],[75.8740445164735,26.81147729594489],[75.87350552730302,26.81147729594489],[75.87350552730302,26.809321339263],[75.8724275489621,26.809321339263],[75.87188855979161,26.810399317603945],[75.87081058145067,26.807704371751587],[75.87296653813256,26.806626393410642],[75.87350552730302,26.807704371751587],[75.87566148398491,26.807165382581115],[75.87566148398491,26.80824336092206],[75.87673946232586,26.80824336092206],[75.87727845149634,26.806626393410642],[75.87889541900775,26.807165382581115],[75.87889541900775,26.8055484150697],[75.87943440817823,26.8055484150697],[75.87943440817823,26.807704371751587],[75.88051238651916,26.807704371751587],[75.88051238651916,26.80608740424017],[75.88212935403058,26.80608740424017],[75.88212935403058,26.80878235009253],[75.88105137568964,26.809321339263],[75.88212935403058,26.810938306774418],[75.88105137568964,26.81147729594489]]]},"id":"+140784+49743","properties":{"count":109,"label":1}},{"type":"Feature","geometry":{"geodesic":false,"type":"Polygon","coordinates":[[[75.87943440817823,26.84974552704838],[75.8778174406668,26.848128559536963],[75.87889541900775,26.84651159202555],[75.87835642983728,26.844355635343664],[75.88105137568964,26.845972602855078],[75.88105137568964,26.84651159202555],[75.87997339734869,26.84651159202555],[75.87997339734869,26.848667548707436],[75.8815903648601,26.84974552704838],[75.87943440817823,26.84974552704838]]]},"id":"+140784+49814","properties":{"count":30,"label":1}},{"type":"Feature","geometry":{"geodesic":false,"type":"Polygon","coordinates":[[[75.88051238651916,26.866993180503474],[75.88051238651916,26.86537621299206],[75.8815903648601,26.863759245480644],[75.87943440817823,26.864298234651116],[75.87943440817823,26.86214227796923],[75.87997339734869,26.86214227796923],[75.87997339734869,26.859986321287344],[75.88105137568964,26.859447332116872],[75.88105137568964,26.859986321287344],[75.88212935403058,26.859986321287344],[75.8815903648601,26.861064299628286],[75.88212935403058,26.866454191333002],[75.88051238651916,26.866993180503474]]]},"id":"+140784+49846","properties":{"count":45,"label":1}},{"type":"Feature","geometry":{"geodesic":false,"type":"Polygon","coordinates":[[[75.8815903648601,26.803392458387812],[75.8815903648601,26.802853469217343],[75.88051238651916,26.802853469217343],[75.87997339734869,26.800697512535454],[75.87458350564397,26.800697512535454],[75.8740445164735,26.801236501705926],[75.87350552730302,26.797463577512623],[75.87458350564397,26.797463577512623],[75.87458350564397,26.79584661000121],[75.87727845149634,26.79584661000121],[75.87673946232586,26.797463577512623],[75.87566148398491,26.797463577512623],[75.87566148398491,26.799619534194512],[75.87835642983728,26.80015852336498],[75.87835642983728,26.799619534194512],[75.87943440817823,26.799619534194512],[75.87835642983728,26.797463577512623],[75.87835642983728,26.795307620830737],[75.88051238651916,26.79692458834215],[75.88051238651916,26.798002566683095],[75.88212935403058,26.798002566683095],[75.88212935403058,26.799619534194512],[75.8815903648601,26.799619534194512],[75.88212935403058,26.803392458387812],[75.8815903648601,26.803392458387812]]]},"id":"+140785+49728","properties":{"count":95,"label":1}},{"type":"Feature","geometry":{"geodesic":false,"type":"Polygon","coordinates":[[[75.88051238651916,26.816867187649606],[75.88051238651916,26.81578920930866],[75.8778174406668,26.81578920930866],[75.87673946232586,26.81471123096772],[75.87512249481445,26.81471123096772],[75.87512249481445,26.81578920930866],[75.8740445164735,26.816328198479134],[75.8724275489621,26.813633252626776],[75.87566148398491,26.813094263456303],[75.87512249481445,26.81201628511536],[75.8762004731554,26.81201628511536],[75.87673946232586,26.813633252626776],[75.87889541900775,26.813633252626776],[75.87889541900775,26.81471123096772],[75.88051238651916,26.81471123096772],[75.88051238651916,26.81525022013819],[75.88212935403058,26.81471123096772],[75.88212935403058,26.816867187649606],[75.88051238651916,26.816867187649606]],[[75.8815903648601,26.816328198479134],[75.88105137568964,26.81578920930866],[75.8815903648601,26.81578920930866],[75.8815903648601,26.816328198479134]]]},"id":"+140785+49753","properties":{"count":61,"label":1}},{"type":"Feature","geometry":{"geodesic":false,"type":"Polygon","coordinates":[[[75.8815903648601,26.826568992718098],[75.88212935403058,26.826568992718098],[75.88212935403058,26.82818596022951],[75.8815903648601,26.82818596022951],[75.8815903648601,26.826568992718098]]]},"id":"+140785+49774","properties":{"count":3,"label":1}}]}