{"type":"FeatureCollection","columns":{"count":"Long<0, 4294967295>","label":"Byte<0, 1>","system:index":"String"},"features":[{"type":"Feature","geometry":{"geodesic":false,"type":"Polygon","coordinates":[[[71.8785177957667,26.910651303311685],[71.87905678493716,26.911729281652626],[71.8785177957667,26.911729281652626],[71.8785177957667,26.910651303311685]]]},"id":"+133358+49929","properties":{"count":2,"label":1}},{"type":"Feature","geometry":{"geodesic":false,"type":"Polygon","coordinates":[[[71.88013476327811,26.933827837641967],[71.87959577410764,26.932210870130554],[71.88175173078953,26.932210870130554],[71.88121274161905,26.93113289178961],[71.88821960083519,26.928976935107723],[71.88821960083519,26.927359967596306],[71.88660263332378,26.92789895676678],[71.8860636441533,26.927359967596306],[71.8860636441533,26.924665021743948],[71.88768061166472,26.924665021743948],[71.88821960083519,26.925743000084893],[71.89360949253991,26.925743000084893],[71.89414848171037,26.92843794593725],[71.8995383734151,26.92789895676678],[71.8995383734151,26.92843794593725],[71.90115534092651,26.92843794593725],[71.90169433009697,26.930054913448664],[71.90277230843792,26.930054913448664],[71.90277230843792,26.93113289178961],[71.90115534092651,26.932210870130554],[71.90061635175603,26.929515924278192],[71.89738241673321,26.928976935107723],[71.89738241673321,26.930054913448664],[71.89630443839226,26.930593902619137],[71.89684342756273,26.932210870130554],[71.8995383734151,26.932210870130554],[71.8995383734151,26.932749859301023],[71.89846039507415,26.932749859301023],[71.89846039507415,26.933288848471495],[71.89792140590367,26.932749859301023],[71.89253151419896,26.933288848471495],[71.89199252502848,26.93113289178961],[71.89253151419896,26.930593902619137],[71.89091454668754,26.929515924278192],[71.89307050336943,26.928976935107723],[71.89360949253991,26.926820978425834],[71.89307050336943,26.926281989255365],[71.8898365683466,26.926281989255365],[71.88875859000565,26.929515924278192],[71.8898365683466,26.929515924278192],[71.89091454668754,26.930593902619137],[71.88875859000565,26.930593902619137],[71.88875859000565,26.93113289178961],[71.89091454668754,26.93167188096008],[71.89037555751707,26.933288848471495],[71.88875859000565,26.933288848471495],[71.88714162249424,26.932210870130554],[71.88714162249424,26.93167188096008],[71.88821960083519,26.93167188096008],[71.88821960083519,26.930593902619137],[71.88552465498283,26.930593902619137],[71.8860636441533,26.93167188096008],[71.88229071996,26.93167188096008],[71.88229071996,26.932749859301023],[71.88121274161905,26.933827837641967],[71.88013476327811,26.933827837641967]]]},"id":"+133362+49970","properties":{"count":231,"label":1}},{"type":"Feature","geometry":{"geodesic":false,"type":"Polygon","coordinates":[[[71.8839076874714,26.91550220584593],[71.8839076874714,26.914963216675456],[71.88175173078953,26.91550220584593],[71.88175173078953,26.914424227504984],[71.88282970913046,26.914424227504984],[71.88282970913046,26.913346249164043],[71.88444667664189,26.913885238334515],[71.88282970913046,26.9122682708231],[71.88498566581235,26.911729281652626],[71.88498566581235,26.914424227504984],[71.88444667664189,26.914424227504984],[71.88498566581235,26.91550220584593],[71.8839076874714,26.91550220584593]]]},"id":"+133369+49936","properties":{"count":26,"label":1}},{"type":"Feature","geometry":{"geodesic":false,"type":"Polygon","coordinates":[[[71.88929757917613,26.920353108380176],[71.88821960083519,26.91873614086876],[71.8898365683466,26.91873614086876],[71.8898365683466,26.917658162527815],[71.88875859000565,26.917658162527815],[71.88714162249424,26.91927513003923],[71.88714162249424,26.917658162527815],[71.88821960083519,26.917658162527815],[71.88875859000565,26.916580184186873],[71.89145353585802,26.917658162527815],[71.89145353585802,26.919814119209704],[71.88929757917613,26.920353108380176]]]},"id":"+133380+49945","properties":{"count":33,"label":1}},{"type":"Feature","geometry":{"geodesic":false,"type":"Polygon","coordinates":[[[71.89738241673321,26.94676357773329],[71.89792140590367,26.945146610221872],[71.89630443839226,26.9446076210514],[71.89630443839226,26.942990653539987],[71.89792140590367,26.942990653539987],[71.8995383734151,26.94406863188093],[71.8995383734151,26.94676357773329],[71.89738241673321,26.94676357773329]]]},"id":"+133396+49994","properties":{"count":29,"label":1}},{"type":"Feature","geometry":{"geodesic":false,"type":"Polygon","coordinates":[[[71.90169433009697,26.919814119209704],[71.90115534092651,26.91873614086876],[71.89684342756273,26.91873614086876],[71.89684342756273,26.916580184186873],[71.89846039507415,26.916580184186873],[71.89846039507415,26.917658162527815],[71.90007736258556,26.917658162527815],[71.90007736258556,26.917119173357346],[71.9033112976084,26.916580184186873],[71.90385028677886,26.91873614086876],[71.90223331926745,26.91873614086876],[71.90169433009697,26.919814119209704]]]},"id":"+133401+49944","properties":{"count":41,"label":1}},{"type":"Feature","geometry":{"geodesic":false,"type":"Polygon","coordinates":[[[71.90438927594934,26.9160411950164],[71.90438927594934,26.914424227504984],[71.90600624346075,26.913885238334515],[71.90600624346075,26.91280725999357],[71.9070842218017,26.913346249164043],[71.90762321097216,26.91280725999357],[71.90762321097216,26.914424227504984],[71.90546725429029,26.914963216675456],[71.90438927594934,26.9160411950164]]]},"id":"+133406+49937","properties":{"count":18,"label":1}},{"type":"Feature","geometry":{"geodesic":false,"type":"Polygon","coordinates":[[[71.9070842218017,26.908495346629795],[71.9070842218017,26.907956357459327],[71.90600624346075,26.907956357459327],[71.90600624346075,26.90633938994791],[71.90762321097216,26.905800400777437],[71.90816220014264,26.902566465754607],[71.90600624346075,26.902027476584138],[71.90654523263122,26.90041050907272],[71.90762321097216,26.90041050907272],[71.90816220014264,26.901488487413665],[71.90924017848359,26.901488487413665],[71.91031815682453,26.902566465754607],[71.9124741135064,26.902566465754607],[71.91355209184735,26.904722422436496],[71.9146300701883,26.904722422436496],[71.9146300701883,26.90364444409555],[71.91624703769972,26.90364444409555],[71.91732501604066,26.902566465754607],[71.92001996189302,26.902566465754607],[71.92001996189302,26.902027476584138],[71.92217591857491,26.902566465754607],[71.92217591857491,26.904722422436496],[71.92109794023396,26.906878379118382],[71.92055895106348,26.906878379118382],[71.92109794023396,26.90364444409555],[71.92055895106348,26.90310545492508],[71.91786400521113,26.90310545492508],[71.91570804852924,26.90633938994791],[71.91301310267689,26.905800400777437],[71.9124741135064,26.904183433266024],[71.90816220014264,26.904183433266024],[71.90924017848359,26.90633938994791],[71.9087011893131,26.90633938994791],[71.9087011893131,26.907956357459327],[71.9070842218017,26.908495346629795]]]},"id":"+133412+49923","properties":{"count":126,"label":1}},{"type":"Feature","geometry":{"geodesic":false,"type":"Polygon","coordinates":[[[71.91031815682453,26.917658162527815],[71.91031815682453,26.917119173357346],[71.90762321097216,26.916580184186873],[71.90762321097216,26.914424227504984],[71.9087011893131,26.914424227504984],[71.90924017848359,26.91550220584593],[71.910857145995,26.914963216675456],[71.91139613516548,26.91550220584593],[71.91031815682453,26.917658162527815]]]},"id":"+133417+49940","properties":{"count":26,"label":1}},{"type":"Feature","geometry":{"geodesic":false,"type":"Polygon","coordinates":[[[71.90654523263122,26.92520401091442],[71.90654523263122,26.924665021743948],[71.90438927594934,26.924665021743948],[71.90438927594934,26.924126032573476],[71.9087011893131,26.923587043403003],[71.90924017848359,26.924665021743948],[71.910857145995,26.924665021743948],[71.910857145995,26.923587043403003],[71.91193512433594,26.923587043403003],[71.91193512433594,26.92520401091442],[71.90654523263122,26.92520401091442]]]},"id":"+133419+49954","properties":{"count":26,"label":1}},{"type":"Feature","geometry":{"geodesic":false,"type":"Polygon","coordinates":[[[71.9124741135064,26.934905815982912],[71.910857145995,26.933827837641967],[71.91139613516548,26.93113289178961],[71.9124741135064,26.933288848471495],[71.91409108101783,26.933288848471495],[71.9124741135064,26.934905815982912]]]},"id":"+133421+49972","properties":{"count":19,"label":1}},{"type":"Feature","geometry":{"geodesic":false,"type":"Polygon","coordinates":[[[71.91570804852924,26.935983794323853],[71.91516905935877,26.93436682681244],[71.91570804852924,26.933827837641967],[71.9146300701883,26.933827837641967],[71.9146300701883,26.933288848471495],[71.91786400521113,26.933288848471495],[71.91840299438161,26.935444805153384],[71.91570804852924,26.935983794323853]]]},"id":"+133430+49974","properties":{"count":24,"label":1}},{"type":"Feature","geometry":{"geodesic":false,"type":"Polygon","coordinates":[[[71.92217591857491,26.934905815982912],[71.92217591857491,26.93436682681244],[71.92109794023396,26.93436682681244],[71.92109794023396,26.933288848471495],[71.92271490774537,26.93167188096008],[71.92271490774537,26.932749859301023],[71.92325389691585,26.933288848471495],[71.9243318752568,26.932749859301023],[71.92487086442726,26.93436682681244],[71.92217591857491,26.934905815982912]]]},"id":"+133441+49972","properties":{"count":22,"label":1}},{"type":"Feature","geometry":{"geodesic":false,"type":"Polygon","coordinates":[[[71.92325389691585,26.9122682708231],[71.92325389691585,26.911729281652626],[71.92163692940443,26.9122682708231],[71.92109794023396,26.910112314141212],[71.92217591857491,26.911190292482157],[71.92594884276821,26.911729281652626],[71.92594884276821,26.9122682708231],[71.92325389691585,26.9122682708231]]]},"id":"+133445+49930","properties":{"count":15,"label":1}},{"type":"Feature","geometry":{"geodesic":false,"type":"Polygon","coordinates":[[[71.92756581027962,26.932210870130554],[71.92702682110915,26.93113289178961],[71.92487086442726,26.93113289178961],[71.92487086442726,26.930054913448664],[71.92756581027962,26.928976935107723],[71.92756581027962,26.92789895676678],[71.93079974530245,26.926820978425834],[71.93026075613199,26.92789895676678],[71.93133873447292,26.928976935107723],[71.93026075613199,26.930054913448664],[71.92918277779104,26.930054913448664],[71.92918277779104,26.928976935107723],[71.9281047994501,26.928976935107723],[71.92756581027962,26.929515924278192],[71.9281047994501,26.932210870130554],[71.92756581027962,26.932210870130554]]]},"id":"+133449+49967","properties":{"count":43,"label":1}},{"type":"Feature","geometry":{"geodesic":false,"type":"Polygon","coordinates":[[[71.92756581027962,26.926820978425834],[71.92756581027962,26.925743000084893],[71.93026075613199,26.92520401091442],[71.92918277779104,26.923048054232535],[71.93079974530245,26.921431086721118],[71.93079974530245,26.923587043403003],[71.93241671281386,26.923587043403003],[71.93241671281386,26.924665021743948],[71.93079974530245,26.92520401091442],[71.9297217669615,26.926820978425834],[71.92756581027962,26.926820978425834]]]},"id":"+133452+49957","properties":{"count":32,"label":1}},{"type":"Feature","geometry":{"geodesic":false,"type":"Polygon","coordinates":[[[71.93026075613199,26.937061772664798],[71.93079974530245,26.934905815982912],[71.93026075613199,26.933827837641967],[71.9318777236434,26.933288848471495],[71.93241671281386,26.936522783494325],[71.93026075613199,26.937061772664798]]]},"id":"+133456+49976","properties":{"count":19,"label":1}},{"type":"Feature","geometry":{"geodesic":false,"type":"Polygon","coordinates":[[[71.9318777236434,26.920353108380176],[71.93079974530245,26.918197151698287],[71.93241671281386,26.918197151698287],[71.93241671281386,26.914963216675456],[71.93133873447292,26.913885238334515],[71.9281047994501,26.913885238334515],[71.92756581027962,26.914424227504984],[71.92756581027962,26.91280725999357],[71.92648783193867,26.911190292482157],[71.92864378862056,26.910651303311685],[71.92864378862056,26.911729281652626],[71.93026075613199,26.91280725999357],[71.93026075613199,26.9122682708231],[71.93133873447292,26.9122682708231],[71.93079974530245,26.910112314141212],[71.93241671281386,26.910112314141212],[71.93295570198434,26.909034335800268],[71.93241671281386,26.907956357459327],[71.92864378862056,26.908495346629795],[71.9281047994501,26.907956357459327],[71.92864378862056,26.906878379118382],[71.92702682110915,26.905800400777437],[71.92756581027962,26.90364444409555],[71.92540985359773,26.902566465754607],[71.92594884276821,26.900949498243193],[71.9281047994501,26.900949498243193],[71.9281047994501,26.901488487413665],[71.93133873447292,26.900949498243193],[71.9318777236434,26.902566465754607],[71.93295570198434,26.902566465754607],[71.93295570198434,26.901488487413665],[71.93133873447292,26.90041050907272],[71.9334946911548,26.900949498243193],[71.9334946911548,26.90364444409555],[71.93241671281386,26.904722422436496],[71.93133873447292,26.904183433266024],[71.9318777236434,26.90526141160697],[71.93133873447292,26.90633938994791],[71.93457266949575,26.906878379118382],[71.93457266949575,26.909034335800268],[71.93241671281386,26.911190292482157],[71.93403368032529,26.911190292482157],[71.9334946911548,26.913885238334515],[71.9356506478367,26.913346249164043],[71.93618963700717,26.9122682708231],[71.93618963700717,26.91550220584593],[71.93295570198434,26.9160411950164],[71.9334946911548,26.91873614086876],[71.93511165866623,26.91873614086876],[71.93511165866623,26.919814119209704],[71.9334946911548,26.91927513003923],[71.9318777236434,26.920353108380176]]]},"id":"+133457+49945","properties":{"count":267,"label":1}},{"type":"Feature","geometry":{"geodesic":false,"type":"Polygon","coordinates":[[[71.93618963700717,26.91927513003923],[71.93672862617764,26.917658162527815],[71.93780660451858,26.917658162527815],[71.93780660451858,26.916580184186873],[71.93996256120047,26.917119173357346],[71.93996256120047,26.918197151698287],[71.93834559368905,26.918197151698287],[71.93834559368905,26.91927513003923],[71.93618963700717,26.91927513003923]]]},"id":"+133468+49943","properties":{"count":20,"label":1}}]}