{"type":"FeatureCollection","columns":{"count":"Long<0, 4294967295>","label":"Byte<0, 1>","system:index":"String"},"features":[{"type":"Feature","geometry":{"geodesic":false,"type":"Polygon","coordinates":[[[72.82498277911502,19.08398955889194],[72.82444378994455,19.079677645528168],[72.8255217682855,19.079677645528168],[72.8255217682855,19.08129461303958],[72.82606075745596,19.08129461303958],[72.82606075745596,19.08398955889194],[72.82498277911502,19.08398955889194]]]},"id":"+135115+35406","properties":{"count":16,"label":1}},{"type":"Feature","geometry":{"geodesic":false,"type":"Polygon","coordinates":[[[72.82659974662644,19.009609053366844],[72.82606075745596,19.00745309668496],[72.82875570330833,19.006914107514486],[72.82875570330833,19.009609053366844],[72.82659974662644,19.009609053366844]]]},"id":"+135120+35268","properties":{"count":22,"label":1}},{"type":"Feature","geometry":{"geodesic":false,"type":"Polygon","coordinates":[[[72.82875570330833,19.081833602210054],[72.82767772496739,19.079677645528168],[72.82659974662644,19.079677645528168],[72.82659974662644,19.076443710505337],[72.82767772496739,19.076443710505337],[72.8292946924788,19.07806067801675],[72.8292946924788,19.079677645528168],[72.83037267081974,19.08129461303958],[72.82875570330833,19.081833602210054]]]},"id":"+135122+35402","properties":{"count":37,"label":1}},{"type":"Feature","geometry":{"geodesic":false,"type":"Polygon","coordinates":[[[72.83360660584258,19.006914107514486],[72.83360660584258,19.00583612917354],[72.83198963833115,19.004758150832597],[72.83414559501304,19.004758150832597],[72.83468458418352,19.006914107514486],[72.83360660584258,19.006914107514486]]]},"id":"+135131+35263","properties":{"count":10,"label":1}},{"type":"Feature","geometry":{"geodesic":false,"type":"Polygon","coordinates":[[[72.83252862750163,19.10231519068798],[72.8330676166721,19.101237212347034],[72.83522357335399,19.100698223176565],[72.83522357335399,19.09962024483562],[72.83252862750163,19.098542266494675],[72.83252862750163,19.098003277324203],[72.8309116599902,19.098003277324203],[72.83145064916069,19.094769342301376],[72.8330676166721,19.094769342301376],[72.83414559501304,19.095847320642317],[72.83522357335399,19.09369136396043],[72.8368405408654,19.09369136396043],[72.83737953003588,19.095847320642317],[72.83899649754729,19.09638630981279],[72.83899649754729,19.099081255665148],[72.83737953003588,19.09962024483562],[72.83737953003588,19.100698223176565],[72.83845750837682,19.100698223176565],[72.83845750837682,19.101237212347034],[72.83737953003588,19.101237212347034],[72.83630155169493,19.10231519068798],[72.83252862750163,19.10231519068798]]]},"id":"+135134+35440","properties":{"count":142,"label":1}},{"type":"Feature","geometry":{"geodesic":false,"type":"Polygon","coordinates":[[[72.84061346505871,19.01176501004873],[72.84007447588823,19.010687031707786],[72.83899649754729,19.010687031707786],[72.83791851920634,19.009609053366844],[72.83899649754729,19.007992085855427],[72.84169144339964,19.009609053366844],[72.84169144339964,19.01176501004873],[72.84061346505871,19.01176501004873]]]},"id":"+135144+35272","properties":{"count":27,"label":1}},{"type":"Feature","geometry":{"geodesic":false,"type":"Polygon","coordinates":[[[72.84169144339964,19.02092782594675],[72.84061346505871,19.019310858435336],[72.84169144339964,19.018771869264864],[72.84223043257012,19.016076923412506],[72.84330841091106,19.016076923412506],[72.84384740008153,19.019849847605805],[72.84330841091106,19.019849847605805],[72.84330841091106,19.02092782594675],[72.84169144339964,19.02092782594675]]]},"id":"+135147+35289","properties":{"count":35,"label":1}},{"type":"Feature","geometry":{"geodesic":false,"type":"Polygon","coordinates":[[[72.8465423459339,19.08075562386911],[72.8465423459339,19.079138656357696],[72.84492537842247,19.07806067801675],[72.84492537842247,19.076982699675806],[72.84276942174058,19.07482674299392],[72.84115245422917,19.07482674299392],[72.84007447588823,19.07374876465298],[72.83953548671776,19.06835887294826],[72.84061346505871,19.066741905436846],[72.83953548671776,19.066741905436846],[72.83953548671776,19.066202916266374],[72.84061346505871,19.066202916266374],[72.84115245422917,19.06135201373213],[72.84061346505871,19.06135201373213],[72.84061346505871,19.059735046220712],[72.84115245422917,19.05919605705024],[72.83953548671776,19.0581180787093],[72.84007447588823,19.05488414368647],[72.83791851920634,19.05326717617505],[72.83845750837682,19.051111219493166],[72.83414559501304,19.051111219493166],[72.83414559501304,19.052728187004583],[72.83252862750163,19.053806165345524],[72.83252862750163,19.051650208663638],[72.83037267081974,19.051111219493166],[72.83037267081974,19.049494251981752],[72.83953548671776,19.05003324115222],[72.84115245422917,19.051650208663638],[72.84007447588823,19.052728187004583],[72.84007447588823,19.053806165345524],[72.84438638925201,19.05326717617505],[72.84384740008153,19.057040100368354],[72.84223043257012,19.057579089538827],[72.84169144339964,19.06135201373213],[72.84223043257012,19.06135201373213],[72.84223043257012,19.062968981243543],[72.84276942174058,19.062968981243543],[72.84276942174058,19.0618910029026],[72.84438638925201,19.0618910029026],[72.84438638925201,19.063507970414015],[72.84492537842247,19.063507970414015],[72.84438638925201,19.066202916266374],[72.84708133510436,19.06728089460732],[72.8465423459339,19.071053818800618],[72.84708133510436,19.071053818800618],[72.84762032427483,19.07374876465298],[72.84923729178625,19.075365732164393],[72.84869830261577,19.076982699675806],[72.84762032427483,19.076982699675806],[72.84869830261577,19.08075562386911],[72.8465423459339,19.08075562386911]],[[72.84276942174058,19.066202916266374],[72.84169144339964,19.066202916266374],[72.84223043257012,19.064046959584488],[72.84384740008153,19.064046959584488],[72.84384740008153,19.06512493792543],[72.84276942174058,19.066202916266374]],[[72.84492537842247,19.072131797141562],[72.84384740008153,19.072131797141562],[72.84384740008153,19.07159280797109],[72.84492537842247,19.07159280797109],[72.84492537842247,19.072131797141562]],[[72.84762032427483,19.076443710505337],[72.84600335676342,19.076443710505337],[72.84492537842247,19.075365732164393],[72.84762032427483,19.07482674299392],[72.84762032427483,19.076443710505337]]]},"id":"+135157+35400","properties":{"count":454,"label":1}},{"type":"Feature","geometry":{"geodesic":false,"type":"Polygon","coordinates":[[[72.8503152701272,19.032785587697127],[72.84869830261577,19.03062963101524],[72.84869830261577,19.029551652674296],[72.84708133510436,19.028473674333355],[72.84762032427483,19.026317717651466],[72.84869830261577,19.026317717651466],[72.8503152701272,19.027934685162883],[72.8503152701272,19.029012663503824],[72.85139324846814,19.029551652674296],[72.85139324846814,19.032785587697127],[72.8503152701272,19.032785587697127]]]},"id":"+135162+35311","properties":{"count":49,"label":1}},{"type":"Feature","geometry":{"geodesic":false,"type":"Polygon","coordinates":[[[72.85354920515002,19.06728089460732],[72.85247122680909,19.066202916266374],[72.85247122680909,19.064046959584488],[72.85354920515002,19.062968981243543],[72.85354920515002,19.0618910029026],[72.85462718349096,19.0618910029026],[72.85516617266144,19.06242999207307],[72.85462718349096,19.06458594875496],[72.8557051618319,19.06458594875496],[72.8557051618319,19.066202916266374],[72.85516617266144,19.066202916266374],[72.85516617266144,19.06728089460732],[72.85354920515002,19.06728089460732]]]},"id":"+135169+35375","properties":{"count":41,"label":1}},{"type":"Feature","geometry":{"geodesic":false,"type":"Polygon","coordinates":[[[72.85624415100239,19.07806067801675],[72.85624415100239,19.076982699675806],[72.85462718349096,19.076443710505337],[72.8540881943205,19.072670786312035],[72.85624415100239,19.073209775482507],[72.85624415100239,19.075365732164393],[72.85678314017285,19.075365732164393],[72.85678314017285,19.07752168884628],[72.85732212934333,19.07752168884628],[72.85732212934333,19.07806067801675],[72.85624415100239,19.07806067801675]]]},"id":"+135173+35395","properties":{"count":31,"label":1}},{"type":"Feature","geometry":{"geodesic":false,"type":"Polygon","coordinates":[[[72.86001707519569,19.028473674333355],[72.86001707519569,19.026317717651466],[72.86109505353663,19.025778728480994],[72.86109505353663,19.022544793458167],[72.86217303187757,19.022544793458167],[72.86378999938898,19.023622771799108],[72.86378999938898,19.025239739310525],[72.8616340427071,19.025239739310525],[72.8616340427071,19.027934685162883],[72.86001707519569,19.028473674333355]]]},"id":"+135179+35303","properties":{"count":34,"label":1}},{"type":"Feature","geometry":{"geodesic":false,"type":"Polygon","coordinates":[[[72.8594780860252,19.104471147369864],[72.86109505353663,19.104471147369864],[72.86109505353663,19.105010136540336],[72.8594780860252,19.105010136540336],[72.8594780860252,19.104471147369864]]]},"id":"+135180+35445","properties":{"count":3,"label":1}},{"type":"Feature","geometry":{"geodesic":false,"type":"Polygon","coordinates":[[[72.86594595607087,19.072131797141562],[72.86648494524134,19.07051482963015],[72.86594595607087,19.069975840459676],[72.86432898855946,19.07051482963015],[72.86432898855946,19.069436851289204],[72.86055606436615,19.06835887294826],[72.86109505353663,19.06512493792543],[72.86271202104804,19.0656639270959],[72.86486797772993,19.06835887294826],[72.86594595607087,19.06835887294826],[72.86594595607087,19.069436851289204],[72.86702393441182,19.069975840459676],[72.86702393441182,19.072131797141562],[72.86594595607087,19.072131797141562]]]},"id":"+135191+35384","properties":{"count":55,"label":1}},{"type":"Feature","geometry":{"geodesic":false,"type":"Polygon","coordinates":[[[72.86378999938898,19.08129461303958],[72.86378999938898,19.080216634698637],[72.86271202104804,19.080216634698637],[72.86271202104804,19.079677645528168],[72.86378999938898,19.079677645528168],[72.86325101021852,19.07806067801675],[72.86594595607087,19.076982699675806],[72.8654069669004,19.079677645528168],[72.86756292358228,19.079138656357696],[72.86810191275276,19.08075562386911],[72.86378999938898,19.08129461303958]]]},"id":"+135191+35401","properties":{"count":43,"label":1}},{"type":"Feature","geometry":{"geodesic":false,"type":"Polygon","coordinates":[[[72.86971888026417,19.057040100368354],[72.86864090192323,19.05542313285694],[72.86702393441182,19.05542313285694],[72.86702393441182,19.053806165345524],[72.86486797772993,19.052728187004583],[72.86432898855946,19.051111219493166],[72.86271202104804,19.050572230322693],[72.86217303187757,19.047338295299863],[72.8616340427071,19.047338295299863],[72.86109505353663,19.049494251981752],[72.86001707519569,19.049494251981752],[72.8594780860252,19.047877284470335],[72.86001707519569,19.047338295299863],[72.85893909685474,19.04626031695892],[72.85893909685474,19.047338295299863],[72.85678314017285,19.047877284470335],[72.85678314017285,19.04895526281128],[72.85893909685474,19.049494251981752],[72.8594780860252,19.051111219493166],[72.85840010768428,19.051111219493166],[72.85840010768428,19.050572230322693],[72.8557051618319,19.051111219493166],[72.8557051618319,19.049494251981752],[72.8540881943205,19.048416273640807],[72.8540881943205,19.047338295299863],[72.85193223763861,19.04679930612939],[72.85193223763861,19.044643349447504],[72.85085425929766,19.04572132778845],[72.84438638925201,19.045182338617977],[72.84384740008153,19.04626031695892],[72.84223043257012,19.04572132778845],[72.84223043257012,19.044643349447504],[72.84330841091106,19.044643349447504],[72.84330841091106,19.044104360277032],[72.84546436759295,19.044104360277032],[72.84708133510436,19.04248739276562],[72.84977628095672,19.041948403595146],[72.84977628095672,19.03979244691326],[72.85085425929766,19.039253457742788],[72.85085425929766,19.037636490231375],[72.84977628095672,19.03655851189043],[72.84869830261577,19.037097501060902],[72.84869830261577,19.036019522719958],[72.85247122680909,19.035480533549485],[72.85301021597955,19.037097501060902],[72.85462718349096,19.037097501060902],[72.85462718349096,19.035480533549485],[72.8557051618319,19.035480533549485],[72.8557051618319,19.03655851189043],[72.85678314017285,19.03655851189043],[72.85678314017285,19.037636490231375],[72.85732212934333,19.037636490231375],[72.85732212934333,19.039253457742788],[72.85624415100239,19.039253457742788],[72.8557051618319,19.0408704252542],[72.85732212934333,19.039253457742788],[72.85840010768428,19.039253457742788],[72.86109505353663,19.041948403595146],[72.86217303187757,19.04572132778845],[72.86378999938898,19.04679930612939],[72.86378999938898,19.047877284470335],[72.86486797772993,19.048416273640807],[72.86594595607087,19.051111219493166],[72.86702393441182,19.051111219493166],[72.86756292358228,19.053806165345524],[72.86864090192323,19.053806165345524],[72.86971888026417,19.05488414368647],[72.86971888026417,19.05596212202741],[72.87025786943465,19.05596212202741],[72.87025786943465,19.057040100368354],[72.86971888026417,19.057040100368354]]]},"id":"+135197+35356","properties":{"count":546,"label":1}},{"type":"Feature","geometry":{"geodesic":false,"type":"Polygon","coordinates":[[[72.87295281528701,19.051111219493166],[72.87295281528701,19.050572230322693],[72.87025786943465,19.051111219493166],[72.86971888026417,19.048416273640807],[72.86864090192323,19.048416273640807],[72.86971888026417,19.04626031695892],[72.86864090192323,19.045182338617977],[72.86864090192323,19.043565371106563],[72.87079685860512,19.044104360277032],[72.87133584777558,19.04626031695892],[72.87241382611653,19.04626031695892],[72.87241382611653,19.047338295299863],[72.87349180445747,19.048416273640807],[72.87456978279842,19.048416273640807],[72.87456978279842,19.04572132778845],[72.87564776113936,19.04572132778845],[72.87618675030984,19.044104360277032],[72.8788816961622,19.045182338617977],[72.87834270699172,19.04626031695892],[72.8751087719689,19.047338295299863],[72.87618675030984,19.048416273640807],[72.87403079362795,19.04895526281128],[72.87403079362795,19.050572230322693],[72.87295281528701,19.051111219493166]]]},"id":"+135203+35345","properties":{"count":113,"label":1}},{"type":"Feature","geometry":{"geodesic":false,"type":"Polygon","coordinates":[[[72.87349180445747,19.057040100368354],[72.87187483694606,19.054345154515996],[72.87079685860512,19.054345154515996],[72.87133584777558,19.052728187004583],[72.87241382611653,19.052728187004583],[72.87241382611653,19.053806165345524],[72.8751087719689,19.05542313285694],[72.8751087719689,19.056501111197882],[72.87349180445747,19.057040100368354]]]},"id":"+135205+35356","properties":{"count":26,"label":1}},{"type":"Feature","geometry":{"geodesic":false,"type":"Polygon","coordinates":[[[72.8767257394803,19.03655851189043],[72.8751087719689,19.03386356603807],[72.87618675030984,19.032785587697127],[72.87834270699172,19.0333245768676],[72.87834270699172,19.036019522719958],[72.8767257394803,19.03655851189043]]]},"id":"+135211+35318","properties":{"count":28,"label":1}},{"type":"Feature","geometry":{"geodesic":false,"type":"Polygon","coordinates":[[[72.8767257394803,19.04302638193609],[72.87618675030984,19.041409414424674],[72.87349180445747,19.0408704252542],[72.87349180445747,19.03979244691326],[72.86917989109371,19.03979244691326],[72.86917989109371,19.038714468572316],[72.86864090192323,19.038714468572316],[72.86864090192323,19.037097501060902],[72.87133584777558,19.036019522719958],[72.87133584777558,19.034941544379013],[72.86864090192323,19.034402555208544],[72.86864090192323,19.0333245768676],[72.86756292358228,19.0333245768676],[72.86702393441182,19.032246598526655],[72.86864090192323,19.031168620185714],[72.87079685860512,19.031707609356182],[72.87133584777558,19.03062963101524],[72.87241382611653,19.03062963101524],[72.87241382611653,19.029551652674296],[72.87133584777558,19.029551652674296],[72.87133584777558,19.029012663503824],[72.87187483694606,19.029012663503824],[72.87241382611653,19.025778728480994],[72.87025786943465,19.025239739310525],[72.87025786943465,19.02416176096958],[72.86917989109371,19.023622771799108],[72.86917989109371,19.02092782594675],[72.86702393441182,19.020388836776277],[72.86648494524134,19.018771869264864],[72.86378999938898,19.018771869264864],[72.86432898855946,19.010148042537317],[72.86325101021852,19.009070064196372],[72.86486797772993,19.0085310750259],[72.8654069669004,19.00745309668496],[72.86810191275276,19.007992085855427],[72.86810191275276,19.009070064196372],[72.86864090192323,19.009070064196372],[72.86810191275276,19.010148042537317],[72.86648494524134,19.010687031707786],[72.86594595607087,19.01445995590109],[72.86702393441182,19.01499894507156],[72.86702393441182,19.016076923412506],[72.86810191275276,19.016076923412506],[72.86864090192323,19.01769389092392],[72.87241382611653,19.01823288009439],[72.87349180445747,19.020388836776277],[72.87456978279842,19.019849847605805],[72.87456978279842,19.018771869264864],[72.87564776113936,19.018771869264864],[72.8751087719689,19.01445995590109],[72.87564776113936,19.01445995590109],[72.87564776113936,19.013381977560147],[72.87834270699172,19.012842988389675],[72.87834270699172,19.013381977560147],[72.88103765284409,19.013920966730616],[72.88103765284409,19.017154901753447],[72.87995967450314,19.017154901753447],[72.87995967450314,19.01823288009439],[72.87618675030984,19.019310858435336],[72.87618675030984,19.020388836776277],[72.87403079362795,19.022544793458167],[72.87403079362795,19.02416176096958],[72.8751087719689,19.025778728480994],[72.8751087719689,19.028473674333355],[72.87403079362795,19.029551652674296],[72.87780371782125,19.03062963101524],[72.87780371782125,19.031707609356182],[72.87349180445747,19.032246598526655],[72.87403079362795,19.036019522719958],[72.8767257394803,19.037097501060902],[72.8767257394803,19.03979244691326],[72.87780371782125,19.03979244691326],[72.8788816961622,19.041409414424674],[72.8788816961622,19.04302638193609],[72.8767257394803,19.04302638193609]]]},"id":"+135213+35330","properties":{"count":643,"label":1}},{"type":"Feature","geometry":{"geodesic":false,"type":"Polygon","coordinates":[[[72.88211563118503,19.10231519068798],[72.88211563118503,19.101776201517506],[72.88103765284409,19.101776201517506],[72.88103765284409,19.097464288153734],[72.88211563118503,19.097464288153734],[72.88211563118503,19.09962024483562],[72.88319360952596,19.09962024483562],[72.88319360952596,19.099081255665148],[72.8842715878669,19.09962024483562],[72.8842715878669,19.100698223176565],[72.8826546203555,19.100698223176565],[72.8826546203555,19.10231519068798],[72.88211563118503,19.10231519068798]]]},"id":"+135220+35440","properties":{"count":28,"label":1}},{"type":"Feature","geometry":{"geodesic":false,"type":"Polygon","coordinates":[[[72.88588855537833,19.044104360277032],[72.88588855537833,19.043565371106563],[72.8826546203555,19.04302638193609],[72.88211563118503,19.038175479401843],[72.88481057703738,19.038175479401843],[72.8842715878669,19.036019522719958],[72.8864275445488,19.03386356603807],[72.88750552288974,19.03386356603807],[72.88858350123068,19.034941544379013],[72.89127844708304,19.034941544379013],[72.89181743625352,19.03655851189043],[72.89073945791257,19.037097501060902],[72.89073945791257,19.038175479401843],[72.88966147957163,19.038175479401843],[72.88966147957163,19.039253457742788],[72.89127844708304,19.03979244691326],[72.89181743625352,19.041409414424674],[72.88750552288974,19.0408704252542],[72.88750552288974,19.044104360277032],[72.88588855537833,19.044104360277032]],[[72.88750552288974,19.037636490231375],[72.8864275445488,19.037636490231375],[72.8864275445488,19.03655851189043],[72.88804451206022,19.03655851189043],[72.88750552288974,19.037636490231375]]]},"id":"+135229+35332","properties":{"count":205,"label":1}},{"type":"Feature","geometry":{"geodesic":false,"type":"Polygon","coordinates":[[[72.88696653371927,19.026317717651466],[72.88696653371927,19.025239739310525],[72.88588855537833,19.025239739310525],[72.88588855537833,19.02416176096958],[72.88912249040116,19.023083782628635],[72.88858350123068,19.025778728480994],[72.88696653371927,19.026317717651466]]]},"id":"+135230+35299","properties":{"count":22,"label":1}},{"type":"Feature","geometry":{"geodesic":false,"type":"Polygon","coordinates":[[[72.88750552288974,19.06242999207307],[72.88696653371927,19.060274035391185],[72.88481057703738,19.0581180787093],[72.88319360952596,19.05865706787977],[72.8842715878669,19.057040100368354],[72.88373259869644,19.05542313285694],[72.8842715878669,19.05488414368647],[72.88534956620785,19.05488414368647],[72.8864275445488,19.05596212202741],[72.8864275445488,19.057040100368354],[72.88804451206022,19.057040100368354],[72.8902004687421,19.059735046220712],[72.89127844708304,19.05919605705024],[72.89127844708304,19.056501111197882],[72.89289541459446,19.056501111197882],[72.89289541459446,19.060813024561657],[72.88966147957163,19.060274035391185],[72.88966147957163,19.0618910029026],[72.88750552288974,19.06242999207307]]]},"id":"+135232+35366","properties":{"count":111,"label":1}},{"type":"Feature","geometry":{"geodesic":false,"type":"Polygon","coordinates":[[[72.88696653371927,19.08398955889194],[72.88696653371927,19.082911580550995],[72.88804451206022,19.082911580550995],[72.88804451206022,19.081833602210054],[72.88912249040116,19.081833602210054],[72.8902004687421,19.082911580550995],[72.88912249040116,19.08398955889194],[72.88696653371927,19.08398955889194]]]},"id":"+135232+35406","properties":{"count":15,"label":1}},{"type":"Feature","geometry":{"geodesic":false,"type":"Polygon","coordinates":[[[72.89343440376493,19.035480533549485],[72.89343440376493,19.0333245768676],[72.89505137127635,19.031707609356182],[72.89559036044682,19.029551652674296],[72.89666833878776,19.029551652674296],[72.89720732795823,19.031707609356182],[72.89882429546965,19.031168620185714],[72.89936328464012,19.031707609356182],[72.89936328464012,19.032785587697127],[72.8977463171287,19.0333245768676],[72.89720732795823,19.034941544379013],[72.89559036044682,19.034941544379013],[72.89612934961728,19.0333245768676],[72.89451238210587,19.0333245768676],[72.89451238210587,19.034941544379013],[72.89343440376493,19.035480533549485]]]},"id":"+135241+35316","properties":{"count":57,"label":1}},{"type":"Feature","geometry":{"geodesic":false,"type":"Polygon","coordinates":[[[72.89612934961728,19.027934685162883],[72.89612934961728,19.02739569599241],[72.89451238210587,19.027934685162883],[72.89451238210587,19.02739569599241],[72.89289541459446,19.02739569599241],[72.89289541459446,19.026317717651466],[72.89505137127635,19.024700750140052],[72.89505137127635,19.023622771799108],[72.89612934961728,19.023622771799108],[72.89612934961728,19.022005804287694],[72.89936328464012,19.022544793458167],[72.89936328464012,19.02092782594675],[72.90044126298106,19.02092782594675],[72.90044126298106,19.019849847605805],[72.89882429546965,19.019310858435336],[72.89828530629917,19.01823288009439],[72.89720732795823,19.01823288009439],[72.8977463171287,19.021466815117222],[72.89612934961728,19.021466815117222],[72.89451238210587,19.019310858435336],[72.89289541459446,19.018771869264864],[72.89235642542398,19.022544793458167],[72.88912249040116,19.023083782628635],[72.88912249040116,19.021466815117222],[72.89127844708304,19.02092782594675],[72.89127844708304,19.01499894507156],[72.89073945791257,19.01445995590109],[72.89181743625352,19.013920966730616],[72.89343440376493,19.015537934242033],[72.89289541459446,19.013381977560147],[72.89343440376493,19.013381977560147],[72.89343440376493,19.010148042537317],[72.89127844708304,19.007992085855427],[72.89343440376493,19.006914107514486],[72.89397339293541,19.00529714000307],[72.89720732795823,19.004758150832597],[72.89720732795823,19.00583612917354],[72.8999022738106,19.006375118344014],[72.89936328464012,19.0085310750259],[72.901519241322,19.0085310750259],[72.901519241322,19.009609053366844],[72.90313620883342,19.010148042537317],[72.90313620883342,19.009070064196372],[72.90205823049247,19.0085310750259],[72.901519241322,19.006914107514486],[72.90259721966295,19.00583612917354],[72.90421418717436,19.00583612917354],[72.90475317634484,19.006375118344014],[72.90421418717436,19.0085310750259],[72.9052921655153,19.009609053366844],[72.90637014385625,19.009070064196372],[72.90637014385625,19.010148042537317],[72.90798711136766,19.010148042537317],[72.90798711136766,19.011226020878258],[72.90690913302673,19.011226020878258],[72.90690913302673,19.013381977560147],[72.90637014385625,19.013381977560147],[72.90637014385625,19.012303999219203],[72.90421418717436,19.012303999219203],[72.90313620883342,19.01499894507156],[72.90421418717436,19.016076923412506],[72.9052921655153,19.01499894507156],[72.90690913302673,19.01499894507156],[72.90690913302673,19.01445995590109],[72.90798711136766,19.015537934242033],[72.90960407887908,19.015537934242033],[72.90960407887908,19.017154901753447],[72.90798711136766,19.017154901753447],[72.90690913302673,19.018771869264864],[72.90960407887908,19.019310858435336],[72.91068205722003,19.022005804287694],[72.90852610053814,19.022005804287694],[72.90852610053814,19.021466815117222],[72.90690913302673,19.022005804287694],[72.90690913302673,19.02416176096958],[72.9074481221972,19.02416176096958],[72.90690913302673,19.02739569599241],[72.90475317634484,19.026317717651466],[72.90475317634484,19.021466815117222],[72.9036751980039,19.021466815117222],[72.9036751980039,19.022005804287694],[72.901519241322,19.022005804287694],[72.90259721966295,19.024700750140052],[72.8977463171287,19.025239739310525],[72.89720732795823,19.027934685162883],[72.89612934961728,19.027934685162883]],[[72.89828530629917,19.009609053366844],[72.89612934961728,19.009609053366844],[72.89612934961728,19.0085310750259],[72.8977463171287,19.0085310750259],[72.89828530629917,19.009609053366844]],[[72.90098025215154,19.01176501004873],[72.89882429546965,19.01176501004873],[72.89882429546965,19.010687031707786],[72.90098025215154,19.010687031707786],[72.90098025215154,19.01176501004873]],[[72.89559036044682,19.013920966730616],[72.89451238210587,19.012842988389675],[72.89505137127635,19.01176501004873],[72.89612934961728,19.012303999219203],[72.89559036044682,19.013920966730616]],[[72.90044126298106,19.01499894507156],[72.8999022738106,19.01445995590109],[72.90044126298106,19.01445995590109],[72.90044126298106,19.01499894507156]],[[72.89343440376493,19.017154901753447],[72.89289541459446,19.017154901753447],[72.89289541459446,19.016076923412506],[72.89343440376493,19.016076923412506],[72.89343440376493,19.017154901753447]],[[72.90313620883342,19.017154901753447],[72.90259721966295,19.016615912582974],[72.90313620883342,19.016615912582974],[72.90313620883342,19.017154901753447]],[[72.89828530629917,19.02416176096958],[72.89720732795823,19.02416176096958],[72.89720732795823,19.023083782628635],[72.89828530629917,19.023083782628635],[72.89828530629917,19.02416176096958]]]},"id":"+135247+35302","properties":{"count":858,"label":1}},{"type":"Feature","geometry":{"geodesic":false,"type":"Polygon","coordinates":[[[72.89666833878776,19.049494251981752],[72.89666833878776,19.04895526281128],[72.89505137127635,19.04895526281128],[72.89451238210587,19.047877284470335],[72.89343440376493,19.047877284470335],[72.89289541459446,19.04895526281128],[72.89073945791257,19.04895526281128],[72.8902004687421,19.047338295299863],[72.89073945791257,19.047338295299863],[72.89073945791257,19.04626031695892],[72.89343440376493,19.045182338617977],[72.89343440376493,19.044104360277032],[72.89451238210587,19.044104360277032],[72.89451238210587,19.044643349447504],[72.89828530629917,19.044104360277032],[72.89882429546965,19.044643349447504],[72.89882429546965,19.04572132778845],[72.8977463171287,19.04626031695892],[72.89828530629917,19.048416273640807],[72.89666833878776,19.049494251981752]]]},"id":"+135247+35342","properties":{"count":102,"label":1}},{"type":"Feature","geometry":{"geodesic":false,"type":"Polygon","coordinates":[[[72.91229902473144,19.081833602210054],[72.9112210463905,19.08075562386911],[72.91176003556097,19.079677645528168],[72.9149939705838,19.079138656357696],[72.9149939705838,19.08075562386911],[72.91391599224285,19.081833602210054],[72.91229902473144,19.081833602210054]]]},"id":"+135278+35402","properties":{"count":24,"label":1}},{"type":"Feature","geometry":{"geodesic":false,"type":"Polygon","coordinates":[[[72.90852610053814,19.105010136540336],[72.90852610053814,19.103932158199395],[72.90690913302673,19.103393169028923],[72.90637014385625,19.101237212347034],[72.90475317634484,19.101237212347034],[72.9036751980039,19.103393169028923],[72.90044126298106,19.101776201517506],[72.8999022738106,19.103932158199395],[72.8977463171287,19.103932158199395],[72.89666833878776,19.105010136540336],[72.88750552288974,19.105010136540336],[72.88534956620785,19.09638630981279],[72.8804986636736,19.096925298983262],[72.87942068533266,19.098003277324203],[72.87834270699172,19.101237212347034],[72.87618675030984,19.101237212347034],[72.8767257394803,19.103932158199395],[72.87942068533266,19.103393169028923],[72.87942068533266,19.10285417985845],[72.88157664201455,19.10285417985845],[72.88157664201455,19.103932158199395],[72.8804986636736,19.105010136540336],[72.8751087719689,19.105010136540336],[72.8751087719689,19.104471147369864],[72.87187483694606,19.105010136540336],[72.87241382611653,19.103393169028923],[72.86917989109371,19.103393169028923],[72.86917989109371,19.103932158199395],[72.86486797772993,19.103393169028923],[72.86432898855946,19.09962024483562],[72.86594595607087,19.099081255665148],[72.86594595607087,19.098003277324203],[72.86486797772993,19.096925298983262],[72.86432898855946,19.096925298983262],[72.86432898855946,19.098542266494675],[72.86217303187757,19.099081255665148],[72.86109505353663,19.100698223176565],[72.85732212934333,19.101237212347034],[72.85732212934333,19.10231519068798],[72.86001707519569,19.10285417985845],[72.8594780860252,19.103932158199395],[72.8578611185138,19.103932158199395],[72.85624415100239,19.10231519068798],[72.8540881943205,19.10231519068798],[72.85354920515002,19.098542266494675],[72.85516617266144,19.098003277324203],[72.8557051618319,19.095847320642317],[72.85247122680909,19.095847320642317],[72.85085425929766,19.09369136396043],[72.84923729178625,19.09315237478996],[72.84869830261577,19.090996418108073],[72.84762032427483,19.090996418108073],[72.8465423459339,19.092613385619487],[72.84546436759295,19.092613385619487],[72.84384740008153,19.0904574289376],[72.84276942174058,19.0904574289376],[72.84276942174058,19.087762483085243],[72.83899649754729,19.088840461426187],[72.83845750837682,19.086684504744298],[72.84546436759295,19.085606526403357],[72.84600335676342,19.084528548062412],[72.84815931344531,19.085067537232884],[72.84869830261577,19.082372591380526],[72.8503152701272,19.082372591380526],[72.85085425929766,19.083450569721467],[72.85301021597955,19.083450569721467],[72.85301021597955,19.084528548062412],[72.85732212934333,19.084528548062412],[72.85732212934333,19.085067537232884],[72.8594780860252,19.085067537232884],[72.8594780860252,19.085606526403357],[72.86217303187757,19.085606526403357],[72.86271202104804,19.084528548062412],[72.86109505353663,19.084528548062412],[72.86109505353663,19.082372591380526],[72.86001707519569,19.082372591380526],[72.86055606436615,19.08075562386911],[72.8616340427071,19.08075562386911],[72.8616340427071,19.082911580550995],[72.86594595607087,19.083450569721467],[72.86648494524134,19.082372591380526],[72.87079685860512,19.082911580550995],[72.87079685860512,19.08129461303958],[72.87349180445747,19.080216634698637],[72.87349180445747,19.079138656357696],[72.86864090192323,19.07806067801675],[72.86756292358228,19.076443710505337],[72.86648494524134,19.076443710505337],[72.86648494524134,19.07482674299392],[72.86810191275276,19.074287753823448],[72.86810191275276,19.07482674299392],[72.87025786943465,19.07482674299392],[72.87187483694606,19.076982699675806],[72.87403079362795,19.076982699675806],[72.87295281528701,19.075904721334865],[72.87295281528701,19.07482674299392],[72.87403079362795,19.074287753823448],[72.87349180445747,19.071053818800618],[72.8751087719689,19.07051482963015],[72.8767257394803,19.073209775482507],[72.87834270699172,19.072670786312035],[72.87726472865077,19.07159280797109],[72.87726472865077,19.06781988377779],[72.8751087719689,19.06728089460732],[72.87456978279842,19.064046959584488],[72.87241382611653,19.062968981243543],[72.87241382611653,19.0618910029026],[72.87079685860512,19.060274035391185],[72.87079685860512,19.0581180787093],[72.87133584777558,19.0581180787093],[72.87295281528701,19.060813024561657],[72.87618675030984,19.060813024561657],[72.87564776113936,19.056501111197882],[72.87618675030984,19.056501111197882],[72.87780371782125,19.0581180787093],[72.87780371782125,19.0618910029026],[72.87995967450314,19.06242999207307],[72.88103765284409,19.066741905436846],[72.8826546203555,19.06728089460732],[72.88211563118503,19.069436851289204],[72.8842715878669,19.069975840459676],[72.88481057703738,19.069436851289204],[72.88588855537833,19.07051482963015],[72.88588855537833,19.06781988377779],[72.88750552288974,19.066741905436846],[72.88750552288974,19.06728089460732],[72.88912249040116,19.06728089460732],[72.88966147957163,19.06835887294826],[72.89235642542398,19.06835887294826],[72.89559036044682,19.073209775482507],[72.89559036044682,19.07374876465298],[72.89397339293541,19.07374876465298],[72.89181743625352,19.07159280797109],[72.8902004687421,19.07159280797109],[72.88966147957163,19.069975840459676],[72.8864275445488,19.07051482963015],[72.88588855537833,19.07374876465298],[72.88966147957163,19.073209775482507],[72.88966147957163,19.07374876465298],[72.89073945791257,19.07374876465298],[72.89127844708304,19.07482674299392],[72.89235642542398,19.07482674299392],[72.89235642542398,19.075904721334865],[72.89127844708304,19.075904721334865],[72.89127844708304,19.076443710505337],[72.89397339293541,19.076443710505337],[72.89397339293541,19.07806067801675],[72.8902004687421,19.07806067801675],[72.88912249040116,19.076443710505337],[72.88750552288974,19.076443710505337],[72.88750552288974,19.075904721334865],[72.88481057703738,19.076443710505337],[72.8842715878669,19.076982699675806],[72.88481057703738,19.079138656357696],[72.88319360952596,19.078599667187223],[72.88319360952596,19.079677645528168],[72.88211563118503,19.079677645528168],[72.88211563118503,19.08075562386911],[72.88481057703738,19.080216634698637],[72.88588855537833,19.08129461303958],[72.88588855537833,19.08075562386911],[72.88696653371927,19.08075562386911],[72.88696653371927,19.081833602210054],[72.8842715878669,19.08398955889194],[72.8842715878669,19.085067537232884],[72.88750552288974,19.085606526403357],[72.88750552288974,19.085067537232884],[72.89127844708304,19.084528548062412],[72.89073945791257,19.082911580550995],[72.89181743625352,19.082911580550995],[72.89181743625352,19.081833602210054],[72.89612934961728,19.082372591380526],[72.89612934961728,19.08129461303958],[72.89397339293541,19.08075562386911],[72.89397339293541,19.079677645528168],[72.89505137127635,19.079677645528168],[72.89505137127635,19.08075562386911],[72.8977463171287,19.080216634698637],[72.89828530629917,19.081833602210054],[72.89720732795823,19.082372591380526],[72.89720732795823,19.083450569721467],[72.89828530629917,19.08398955889194],[72.89828530629917,19.085606526403357],[72.89612934961728,19.085606526403357],[72.89505137127635,19.084528548062412],[72.89505137127635,19.085606526403357],[72.89666833878776,19.086145515573826],[72.89666833878776,19.08722349391477],[72.89505137127635,19.087762483085243],[72.89559036044682,19.089379450596656],[72.89666833878776,19.089379450596656],[72.8977463171287,19.0904574289376],[72.89828530629917,19.088840461426187],[72.8977463171287,19.088840461426187],[72.8977463171287,19.086684504744298],[72.89936328464012,19.08722349391477],[72.89936328464012,19.088840461426187],[72.901519241322,19.090996418108073],[72.901519241322,19.09315237478996],[72.8999022738106,19.09369136396043],[72.89936328464012,19.094769342301376],[72.90421418717436,19.094230353130904],[72.90475317634484,19.09315237478996],[72.9036751980039,19.09315237478996],[72.90421418717436,19.092074396449014],[72.9036751980039,19.091535407278545],[72.90637014385625,19.090996418108073],[72.90690913302673,19.096925298983262],[72.9074481221972,19.096925298983262],[72.90798711136766,19.09962024483562],[72.9090650897086,19.098003277324203],[72.9090650897086,19.094769342301376],[72.90798711136766,19.094230353130904],[72.90798711136766,19.092613385619487],[72.91014306804955,19.092613385619487],[72.91014306804955,19.090996418108073],[72.91068205722003,19.090996418108073],[72.90960407887908,19.088301472255715],[72.91068205722003,19.087762483085243],[72.91068205722003,19.088301472255715],[72.91176003556097,19.088301472255715],[72.91283801390192,19.089379450596656],[72.91283801390192,19.0904574289376],[72.91553295975427,19.091535407278545],[72.91553295975427,19.092074396449014],[72.91068205722003,19.092613385619487],[72.91068205722003,19.094769342301376],[72.91283801390192,19.098003277324203],[72.91283801390192,19.100159234006092],[72.91014306804955,19.100159234006092],[72.91014306804955,19.10231519068798],[72.91068205722003,19.10231519068798],[72.91068205722003,19.103393169028923],[72.91176003556097,19.103393169028923],[72.91229902473144,19.101237212347034],[72.91337700307238,19.100159234006092],[72.91445498141333,19.100159234006092],[72.91445498141333,19.101237212347034],[72.91607194892474,19.101776201517506],[72.91661093809522,19.100159234006092],[72.91930588394757,19.100159234006092],[72.91930588394757,19.10231519068798],[72.91661093809522,19.10285417985845],[72.91607194892474,19.103393169028923],[72.91661093809522,19.105010136540336],[72.90852610053814,19.105010136540336]],[[72.8804986636736,19.072670786312035],[72.87942068533266,19.072670786312035],[72.8788816961622,19.071053818800618],[72.88157664201455,19.071053818800618],[72.88157664201455,19.072131797141562],[72.8804986636736,19.072131797141562],[72.8804986636736,19.072670786312035]],[[72.8842715878669,19.072670786312035],[72.88373259869644,19.072670786312035],[72.88373259869644,19.071053818800618],[72.88481057703738,19.07051482963015],[72.8842715878669,19.072670786312035]],[[72.88211563118503,19.084528548062412],[72.88103765284409,19.08398955889194],[72.88103765284409,19.081833602210054],[72.8826546203555,19.082372591380526],[72.88211563118503,19.084528548062412]],[[72.88804451206022,19.086684504744298],[72.88750552288974,19.086145515573826],[72.88804451206022,19.086145515573826],[72.88804451206022,19.086684504744298]],[[72.87942068533266,19.08722349391477],[72.87834270699172,19.08722349391477],[72.87834270699172,19.085606526403357],[72.87726472865077,19.084528548062412],[72.87780371782125,19.079138656357696],[72.87618675030984,19.079138656357696],[72.8751087719689,19.07752168884628],[72.87618675030984,19.07752168884628],[72.8767257394803,19.078599667187223],[72.87942068533266,19.07806067801675],[72.87942068533266,19.079677645528168],[72.87995967450314,19.079677645528168],[72.87995967450314,19.08075562386911],[72.8788816961622,19.081833602210054],[72.8788816961622,19.08398955889194],[72.87995967450314,19.084528548062412],[72.87942068533266,19.08722349391477]],[[72.89397339293541,19.091535407278545],[72.89181743625352,19.091535407278545],[72.89127844708304,19.088840461426187],[72.89289541459446,19.088840461426187],[72.89289541459446,19.0904574289376],[72.89397339293541,19.091535407278545]],[[72.89397339293541,19.094769342301376],[72.89235642542398,19.094769342301376],[72.89289541459446,19.092613385619487],[72.89451238210587,19.09369136396043],[72.89397339293541,19.094769342301376]],[[72.9052921655153,19.098003277324203],[72.90421418717436,19.096925298983262],[72.90313620883342,19.096925298983262],[72.90313620883342,19.095847320642317],[72.90421418717436,19.096925298983262],[72.9052921655153,19.096925298983262],[72.9052921655153,19.098003277324203]],[[72.8751087719689,19.101237212347034],[72.87295281528701,19.101237212347034],[72.87295281528701,19.100698223176565],[72.87456978279842,19.100159234006092],[72.8751087719689,19.101237212347034]],[[72.90313620883342,19.101237212347034],[72.901519241322,19.100698223176565],[72.901519241322,19.09962024483562],[72.8999022738106,19.100159234006092],[72.89936328464012,19.099081255665148],[72.901519241322,19.098542266494675],[72.901519241322,19.09962024483562],[72.90313620883342,19.100159234006092],[72.90313620883342,19.101237212347034]]]},"id":"+135283+35445","properties":{"count":4660,"label":1}},{"type":"Feature","geometry":{"geodesic":false,"type":"Polygon","coordinates":[[[72.91661093809522,19.078599667187223],[72.91553295975427,19.076982699675806],[72.91445498141333,19.076982699675806],[72.91283801390192,19.075365732164393],[72.91229902473144,19.07159280797109],[72.90852610053814,19.072131797141562],[72.90852610053814,19.071053818800618],[72.90960407887908,19.071053818800618],[72.9090650897086,19.069436851289204],[72.9112210463905,19.069975840459676],[72.9112210463905,19.06835887294826],[72.91229902473144,19.06835887294826],[72.91391599224285,19.069975840459676],[72.91391599224285,19.07159280797109],[72.91661093809522,19.071053818800618],[72.91768891643616,19.072131797141562],[72.91930588394757,19.072131797141562],[72.91930588394757,19.076443710505337],[72.91661093809522,19.078599667187223]]]},"id":"+135284+35396","properties":{"count":165,"label":1}},{"type":"Feature","geometry":{"geodesic":false,"type":"Polygon","coordinates":[[[72.91876689477711,19.06781988377779],[72.91822790560663,19.066741905436846],[72.91714992726568,19.066741905436846],[72.91661093809522,19.063507970414015],[72.91337700307238,19.063507970414015],[72.91391599224285,19.060813024561657],[72.91553295975427,19.059735046220712],[72.91445498141333,19.05865706787977],[72.91337700307238,19.05919605705024],[72.91283801390192,19.060813024561657],[72.9090650897086,19.060274035391185],[72.9090650897086,19.060813024561657],[72.90798711136766,19.060813024561657],[72.9090650897086,19.0618910029026],[72.90798711136766,19.0618910029026],[72.90798711136766,19.062968981243543],[72.90690913302673,19.063507970414015],[72.90637014385625,19.06512493792543],[72.90475317634484,19.06512493792543],[72.90313620883342,19.064046959584488],[72.90259721966295,19.06512493792543],[72.90098025215154,19.06512493792543],[72.90098025215154,19.0656639270959],[72.89720732795823,19.0656639270959],[72.89397339293541,19.063507970414015],[72.89397339293541,19.06242999207307],[72.89612934961728,19.062968981243543],[72.89666833878776,19.064046959584488],[72.8999022738106,19.064046959584488],[72.90044126298106,19.062968981243543],[72.90259721966295,19.06242999207307],[72.90313620883342,19.060813024561657],[72.90475317634484,19.060813024561657],[72.90690913302673,19.05919605705024],[72.90852610053814,19.05919605705024],[72.90798711136766,19.057579089538827],[72.90583115468579,19.057040100368354],[72.90637014385625,19.053806165345524],[72.90583115468579,19.053806165345524],[72.90583115468579,19.052728187004583],[72.90798711136766,19.05326717617505],[72.90798711136766,19.052728187004583],[72.91068205722003,19.052728187004583],[72.91176003556097,19.053806165345524],[72.9112210463905,19.05542313285694],[72.91014306804955,19.05596212202741],[72.90960407887908,19.0581180787093],[72.91068205722003,19.0581180787093],[72.91176003556097,19.057040100368354],[72.91176003556097,19.05542313285694],[72.91283801390192,19.054345154515996],[72.91607194892474,19.05488414368647],[72.91607194892474,19.054345154515996],[72.91714992726568,19.054345154515996],[72.91768891643616,19.052728187004583],[72.91930588394757,19.052728187004583],[72.91930588394757,19.06781988377779],[72.91876689477711,19.06781988377779]],[[72.91768891643616,19.06242999207307],[72.91661093809522,19.06135201373213],[72.91768891643616,19.06135201373213],[72.91768891643616,19.06242999207307]],[[72.91553295975427,19.062968981243543],[72.91445498141333,19.06242999207307],[72.9149939705838,19.06135201373213],[72.91607194892474,19.0618910029026],[72.91553295975427,19.062968981243543]]]},"id":"+135288+35376","properties":{"count":477,"label":1}},{"type":"Feature","geometry":{"geodesic":false,"type":"Polygon","coordinates":[[[72.91714992726568,19.087762483085243],[72.91714992726568,19.086145515573826],[72.91607194892474,19.086145515573826],[72.91607194892474,19.085067537232884],[72.91930588394757,19.086145515573826],[72.91930588394757,19.087762483085243],[72.91714992726568,19.087762483085243]]]},"id":"+135288+35413","properties":{"count":17,"label":1}}]}